NORAD_CAT_ID,OBJECT_NAME,OBJECT_TYPE,EPOCH,MEAN_MOTION,ECCENTRICITY,INCLINATION,RA_OF_ASC_NODE,ARG_OF_PERICENTER,MEAN_ANOMALY,BSTAR,MEAN_MOTION_DOT,MEAN_MOTION_DDOT,TLE_LINE0,TLE_LINE1,TLE_LINE2,SEMIMAJOR_AXIS,PERIOD,APOGEE,PERIGEE,DECAYED
54760.0,STARLINK-5220,PAYLOAD,2023-11-11 12:58:14,15.08845864,0.000126,53.218,256.288,87.5874,272.5263,6.9529e-05,8.19e-06,0.0,0 STARLINK-5220,1 54760U 22175C   23315.54044760  .00000819  00000-0  69529-4 0  9996,2 54760  53.2180 256.2880 0001260  87.5874 272.5263 15.08845864 51723,6917.862,95.437,540.599,538.856,0.0
54760.0,STARLINK-5220,PAYLOAD,2023-11-11 20:55:11,15.08834349,0.0001487,53.2181,254.8048,95.9399,264.1763,-5.2843e-05,-1.129e-05,0.0,0 STARLINK-5220,1 54760U 22175C   23315.87165585 -.00001129  00000-0 -52843-4 0  9999,2 54760  53.2181 254.8048 0001487  95.9399 264.1763 15.08834349 51773,6917.898,95.438,540.791,538.734,0.0
54760.0,STARLINK-5220,PAYLOAD,2023-11-12 03:16:43,15.08836492,0.000111,53.217,253.6159,92.1664,267.9455,2.864e-05,1.68e-06,0.0,0 STARLINK-5220,1 54760U 22175C   23316.13661581  .00000168  00000-0  28640-4 0  9994,2 54760  53.2170 253.6159 0001110  92.1664 267.9455 15.08836492 49652,6917.891,95.438,540.524,538.988,0.0
54760.0,STARLINK-5220,PAYLOAD,2023-11-13 04:42:53,15.08852131,0.0001245,53.2176,248.8596,100.8993,259.2139,0.00023301,3.424e-05,0.0,0 STARLINK-5220,1 54760U 22175C   23317.19645125  .00003424  00000-0  23301-3 0  9993,2 54760  53.2176 248.8596 0001245 100.8993 259.2139 15.08852131 49819,6917.843,95.437,540.57,538.847,0.0
54760.0,STARLINK-5220,PAYLOAD,2023-11-14 02:58:17,15.08843972,0.0001413,53.2175,244.6943,72.2922,287.8224,0.00016718,2.374e-05,0.0,0 STARLINK-5220,1 54760U 22175C   23318.12381754  .00002374  00000-0  16718-3 0  9999,2 54760  53.2175 244.6943 0001413  72.2922 287.8224 15.08843972 49959,6917.868,95.437,540.711,538.756,0.0
54760.0,STARLINK-5220,PAYLOAD,2023-11-14 12:30:36,15.08841607,0.0001347,53.2176,242.911,85.1352,274.9794,0.0001264,1.724e-05,0.0,0 STARLINK-5220,1 54760U 22175C   23318.52125839  .00001724  00000-0  12640-3 0  9991,2 54760  53.2176 242.9110 0001347  85.1352 274.9794 15.08841607 52173,6917.875,95.437,540.672,538.809,0.0
54760.0,STARLINK-5220,PAYLOAD,2023-11-14 18:52:09,15.08844314,0.0001458,53.2169,241.7241,80.7754,279.3403,4.3578e-05,4.06e-06,0.0,0 STARLINK-5220,1 54760U 22175C   23318.78621820  .00000406  00000-0  43578-4 0  9991,2 54760  53.2169 241.7241 0001458  80.7754 279.3403 15.08844314 52216,6917.867,95.437,540.741,538.724,0.0
54760.0,STARLINK-5220,PAYLOAD,2023-11-15 01:13:41,15.08843921,0.0001506,53.2171,240.5343,78.8681,281.2481,4.9101e-05,4.94e-06,0.0,0 STARLINK-5220,1 54760U 22175C   23319.05117827  .00000494  00000-0  49101-4 0  9994,2 54760  53.2171 240.5343 0001506  78.8681 281.2481 15.08843921 50095,6917.868,95.437,540.775,538.692,0.0
54760.0,STARLINK-5220,PAYLOAD,2023-11-16 04:15:14,15.08846323,0.0001567,53.216,235.476,90.2118,269.9054,0.00010737,1.421e-05,0.0,0 STARLINK-5220,1 54760U 22175C   23320.17725652  .00001421  00000-0  10737-3 0  9993,2 54760  53.2160 235.4760 0001567  90.2118 269.9054 15.08846323 50266,6917.861,95.437,540.81,538.642,0.0
54760.0,STARLINK-5220,PAYLOAD,2023-11-17 04:06:02,15.08826073,0.00017,53.2187,231.0117,108.5013,251.6164,0.00031865,4.785e-05,0.0,0 STARLINK-5220,1 54760U 22175C   23321.17086378  .00004785  00000-0  31865-3 0  9990,2 54760  53.2187 231.0117 0001700 108.5013 251.6164 15.08826073 50416,6917.923,95.438,540.964,538.612,0.0
54760.0,STARLINK-5220,PAYLOAD,2023-11-18 10:18:22,15.08837185,0.0001693,53.2175,225.3639,95.6561,264.4625,1.7289e-05,-1.3e-07,0.0,0 STARLINK-5220,1 54760U 22175C   23322.42942471 -.00000013  00000-0  17289-4 0  9990,2 54760  53.2175 225.3639 0001693  95.6561 264.4625 15.08837185 50604,6917.889,95.438,540.925,538.583,0.0
54760.0,STARLINK-5220,PAYLOAD,2023-11-18 16:39:54,15.08836874,0.0001904,53.2188,224.174,85.1193,275.0017,2.8773e-05,1.7e-06,0.0,0 STARLINK-5220,1 54760U 22175C   23322.69438631  .00000170  00000-0  28773-4 0  9990,2 54760  53.2188 224.1740 0001904  85.1193 275.0017 15.08836874 52809,6917.89,95.438,541.072,538.438,0.0
54760.0,STARLINK-5220,PAYLOAD,2023-11-19 10:09:09,15.08816095,0.0001524,53.2176,220.907,101.6054,258.5109,0.00046026,7.04e-05,0.0,0 STARLINK-5220,1 54760U 22175C   23323.42302752  .00007040  00000-0  46026-3 0  9999,2 54760  53.2176 220.9070 0001524 101.6054 258.5109 15.08816095 50757,6917.953,95.439,540.873,538.764,0.0
54760.0,STARLINK-5220,PAYLOAD,2023-11-19 16:30:41,15.08835358,0.0001703,53.2179,219.7172,91.1684,268.9503,0.00011596,1.558e-05,0.0,0 STARLINK-5220,1 54760U 22175C   23323.68798513  .00001558  00000-0  11596-3 0  9993,2 54760  53.2179 219.7172 0001703  91.1684 268.9503 15.08835358 50790,6917.895,95.438,540.938,538.581,0.0
54760.0,STARLINK-5220,PAYLOAD,2023-11-19 21:16:51,15.08834176,0.0001653,53.2176,218.825,90.914,269.2042,6.5071e-05,7.48e-06,0.0,0 STARLINK-5220,1 54760U 22175C   23323.88670735  .00000748  00000-0  65071-4 0  9998,2 54760  53.2176 218.8250 0001653  90.9140 269.2042 15.08834176 52984,6917.898,95.438,540.907,538.62,0.0
54760.0,STARLINK-5220,PAYLOAD,2023-11-20 09:59:56,15.08838986,0.0001601,53.2171,216.4461,85.3794,274.7381,7.7021e-05,9.38e-06,0.0,0 STARLINK-5220,1 54760U 22175C   23324.41662532  .00000938  00000-0  77021-4 0  9993,2 54760  53.2171 216.4461 0001601  85.3794 274.7381 15.08838986 53063,6917.883,95.438,540.856,538.641,0.0
54760.0,STARLINK-5220,PAYLOAD,2023-11-20 22:43:01,15.08846169,0.0001651,53.2172,214.0677,90.3601,269.758,7.4172e-05,8.93e-06,0.0,0 STARLINK-5220,1 54760U 22175C   23324.94654022  .00000893  00000-0  74172-4 0  9990,2 54760  53.2172 214.0677 0001651  90.3601 269.7580 15.08846169 53141,6917.862,95.437,540.869,538.584,0.0
54760.0,STARLINK-5220,PAYLOAD,2023-11-21 01:53:46,15.0885087,0.0001663,53.2173,213.473,90.8431,269.2752,0.00011464,1.537e-05,0.0,0 STARLINK-5220,1 54760U 22175C   23325.07901596  .00001537  00000-0  11464-3 0  9996,2 54760  53.2173 213.4730 0001663  90.8431 269.2752 15.08850870 51007,6917.847,95.437,540.863,538.562,0.0
54760.0,STARLINK-5220,PAYLOAD,2023-11-21 09:50:43,15.08843385,0.0001677,53.2175,211.9852,84.9806,275.1378,4.4843e-05,4.26e-06,0.0,0 STARLINK-5220,1 54760U 22175C   23325.41022258  .00000426  00000-0  44843-4 0  9997,2 54760  53.2175 211.9852 0001677  84.9806 275.1378 15.08843385 51050,6917.87,95.437,540.895,538.575,0.0
54760.0,STARLINK-5220,PAYLOAD,2023-11-21 20:58:25,15.08836945,0.0001734,53.2165,209.9038,84.8072,275.3118,5.2795e-05,5.52e-06,0.0,0 STARLINK-5220,1 54760U 22175C   23325.87390826  .00000552  00000-0  52795-4 0  9991,2 54760  53.2165 209.9038 0001734  84.8072 275.3118 15.08836945 53285,6917.89,95.438,540.954,538.555,0.0
54760.0,STARLINK-5220,PAYLOAD,2023-11-22 00:09:11,15.08839145,0.0001658,53.217,209.3102,87.1692,272.949,6.3657e-05,7.25e-06,0.0,0 STARLINK-5220,1 54760U 22175C   23326.00638670  .00000725  00000-0  63657-4 0  9990,2 54760  53.2170 209.3102 0001658  87.1692 272.9490 15.08839145 51140,6917.883,95.438,540.895,538.601,0.0
54760.0,STARLINK-5220,PAYLOAD,2023-11-22 20:49:11,15.08851791,0.0001622,53.217,205.4455,87.5165,272.6013,0.0001479,2.067e-05,0.0,0 STARLINK-5220,1 54760U 22175C   23326.86749663  .00002067  00000-0  14790-3 0  9993,2 54760  53.2170 205.4455 0001622  87.5165 272.6013 15.08851791 53431,6917.844,95.437,540.831,538.587,0.0
54760.0,STARLINK-5220,PAYLOAD,2023-11-22 22:24:34,15.08852466,0.0001631,53.2161,205.1477,87.0131,273.1048,0.0002243,3.285e-05,0.0,0 STARLINK-5220,1 54760U 22175C   23326.93373817  .00003285  00000-0  22430-3 0  9998,2 54760  53.2161 205.1477 0001631  87.0131 273.1048 15.08852466 51285,6917.842,95.437,540.836,538.579,0.0
54760.0,STARLINK-5220,PAYLOAD,2023-11-23 19:04:36,15.08834859,0.0001397,53.2158,201.2794,80.8295,279.2856,7.3952e-05,8.89e-06,0.0,0 STARLINK-5220,1 54760U 22175C   23327.79486768  .00000889  00000-0  73952-4 0  9996,2 54760  53.2158 201.2794 0001397  80.8295 279.2856 15.08834859 51416,6917.896,95.438,540.728,538.795,0.0
54760.0,STARLINK-5220,PAYLOAD,2023-11-23 22:15:22,15.08835479,0.000132,53.2153,200.6814,111.4642,248.6491,4.9819e-05,5.05e-06,0.0,0 STARLINK-5220,1 54760U 22175C   23327.92734582  .00000505  00000-0  49819-4 0  9991,2 54760  53.2153 200.6814 0001320 111.4642 248.6491 15.08835479 53595,6917.894,95.438,540.672,538.846,0.0
54760.0,STARLINK-5220,PAYLOAD,2023-11-24 01:26:09,15.08834589,0.0001356,53.2157,200.0879,111.3422,248.7715,3.5345e-05,2.75e-06,0.0,0 STARLINK-5220,1 54760U 22175C   23328.05982686  .00000275  00000-0  35345-4 0  9999,2 54760  53.2157 200.0879 0001356 111.3422 248.7715 15.08834589 53612,6917.897,95.438,540.7,538.824,0.0
54760.0,STARLINK-5220,PAYLOAD,2023-11-24 22:06:09,15.08841975,0.0001474,53.2163,196.2225,105.368,254.7475,0.00012131,1.643e-05,0.0,0 STARLINK-5220,1 54760U 22175C   23328.92094820  .00001643  00000-0  12131-3 0  9996,2 54760  53.2163 196.2225 0001474 105.3680 254.7475 15.08841975 53741,6917.874,95.437,540.759,538.72,0.0
54760.0,STARLINK-5220,PAYLOAD,2023-11-25 21:56:56,15.08860393,0.000158,53.2163,191.7637,103.4118,256.7051,0.00060658,9.384e-05,0.0,0 STARLINK-5220,1 54760U 22175C   23329.91454437  .00009384  00000-0  60658-3 0  9997,2 54760  53.2163 191.7637 0001580 103.4118 256.7051 15.08860393 53894,6917.818,95.436,540.776,538.59,0.0
54760.0,STARLINK-5220,PAYLOAD,2023-11-26 20:12:20,15.08845103,0.000174,53.2171,187.6015,115.7637,244.3535,8.4055e-05,1.05e-05,0.0,0 STARLINK-5220,1 54760U 22175C   23330.84190539  .00001050  00000-0  84055-4 0  9991,2 54760  53.2171 187.6015 0001740 115.7637 244.3535 15.08845103 51875,6917.865,95.437,540.933,538.526,0.0
54760.0,STARLINK-5220,PAYLOAD,2023-11-26 21:47:43,15.08842414,0.0001675,53.2167,187.3055,113.8236,246.2931,-2.0225e-05,-6.1e-06,0.0,0 STARLINK-5220,1 54760U 22175C   23330.90814536 -.00000610  00000-0 -20225-4 0  9990,2 54760  53.2167 187.3055 0001675 113.8236 246.2931 15.08842414 54047,6917.873,95.437,540.897,538.579,0.0
